0 COSMOS 375 DEB
1 04628U 70091H   13282.11192899  .00004469  00000-0  11223-2 0  2675
2 04628 062.7819 357.4767 0470742 250.9844 185.8839 14.02035704106487
0 COSMOS 375 DEB
1 04628U 70091H   13283.73613249  .00003053  00000-0  74039-3 0  2685
2 04628 062.7810 352.7686 0470955 251.0651 103.9240 14.02036852106718
0 COSMOS 375 DEB
1 04628U 70091H   13284.16946550  .00004480  00000-0  11250-2 0  2687
2 04628 062.7821 351.5067 0470662 251.2971 130.9700 14.02051189106779
0 COSMOS 375 DEB
1 04628U 70091H   13286.46571161  .00004232  00000-0  10649-2 0  2691
2 04628 062.7821 344.8431 0470525 251.6580 201.0442 14.02066738107092
0 COSMOS 375 DEB
1 04628U 70091H   13288.75095204  .00005945  00000-0  14807-2 0  2708
2 04628 062.7819 338.2117 0470421 252.0238 215.7140 14.02091520107417
0 COSMOS 375 DEB
1 04628U 70091H   13291.16925905  .00004373  00000-0  10987-2 0  2717
2 04628 062.7811 331.1931 0470337 252.4133 182.2550 14.02117990107759
0 COSMOS 375 DEB
1 04628U 70091H   13293.38346218  .00005012  00000-0  12542-2 0  2728
2 04628 062.7805 324.7660 0470175 252.7693 198.7589 14.02135116108062
0 COSMOS 375 DEB
1 04628U 70091H   13295.53708043  .00006483  00000-0  16117-2 0  2731
2 04628 062.7808 318.5147 0470018 253.1119 269.5966 14.02153934108367
